H1 CPF 01  gfz 2022 03 14 01  5731 terrasarx 
H2 0702601  6201 31698    2022 03 14 00 59 42 2022 03 19 00 00 42   120 1 1  0 0 0
H9
10 0 59655  75582.000000  0    4854418.152  -4866772.448    458188.298
10 0 59655  75702.000000  0    4642145.876  -4904959.556   1354709.938
10 0 59655  75822.000000  0    4348841.703  -4852972.921   2227379.049
10 0 59655  75942.000000  0    3981205.848  -4710350.619   3060826.822
10 0 59655  76062.000000  0    3547244.550  -4478358.513   3840380.098
10 0 59655  76182.000000  0    3056094.502  -4159986.069   4552325.291
10 0 59655  76302.000000  0    2517827.639  -3759906.735   5184152.109
10 0 59655  76422.000000  0    1943241.332  -3284405.304   5724772.773
10 0 59655  76542.000000  0    1343638.071  -2741273.352   6164714.131
10 0 59655  76662.000000  0     730600.272  -2139675.660   6496277.720
10 0 59655  76782.000000  0     115764.919  -1489991.623   6713668.088
10 0 59655  76902.000000  0    -489397.200   -803633.795   6813088.242
10 0 59655  77022.000000  0   -1073794.365    -92845.727   6792801.961
10 0 59655  77142.000000  0   -1626916.384    629516.296   6653162.014
10 0 59655  77262.000000  0   -2139023.010   1350215.163   6396604.330
10 0 59655  77382.000000  0   -2601315.740   2055874.499   6027608.207
10 0 59655  77502.000000  0   -3006090.089   2733226.612   5552623.232
10 0 59655  77622.000000  0   -3346866.715   3369363.491   4979963.168
10 0 59655  77742.000000  0   -3618499.165   3951985.666   4319666.497
10 0 59655  77862.000000  0   -3817255.199   4469645.044   3583325.449
10 0 59655  77982.000000  0   -3940869.832   4911976.135   2783884.978
10 0 59655  78102.000000  0   -3988568.757   5269909.902   1935414.068
10 0 59655  78222.000000  0   -3961060.431   5535864.055   1052854.627
10 0 59655  78342.000000  0   -3860498.743   5703906.396    151753.443
10 0 59655  78462.000000  0   -3690416.693   5769887.728   -752019.860
10 0 59655  78582.000000  0   -3455630.224   5731537.842  -1642563.029
10 0 59655  78702.000000  0   -3162115.867   5588522.177  -2504230.934
10 0 59655  78822.000000  0   -2816864.448   5342459.146  -3321916.508
10 0 59655  78942.000000  0   -2427718.617   4996898.385  -4081318.748
10 0 59655  79062.000000  0   -2003196.395   4557260.537  -4769192.361
10 0 59655  79182.000000  0   -1552305.619   4030741.936  -5373572.835
10 0 59655  79302.000000  0   -1084354.809   3426188.606  -5883976.738
10 0 59655  79422.000000  0    -608762.739   2753939.771  -6291574.943
10 0 59655  79542.000000  0    -134871.048   2025644.718  -6589333.921
10 0 59655  79662.000000  0     328235.126   1254059.179  -6772125.424
10 0 59655  79782.000000  0     771896.512    452823.351  -6836806.292
10 0 59655  79902.000000  0    1188038.034   -363775.242  -6782266.819
10 0 59655  80022.000000  0    1569311.886  -1181051.632  -6609446.483
10 0 59655  80142.000000  0    1909223.725  -1984180.287  -6321318.663
10 0 59655  80262.000000  0    2202241.933  -2758457.047  -5922845.594
10 0 59655  80382.000000  0    2443887.591  -3489564.043  -5420903.469
10 0 59655  80502.000000  0    2630804.674  -4163835.440  -4824174.781
10 0 59655  80622.000000  0    2760807.238  -4768514.203  -4143007.131
10 0 59655  80742.000000  0    2832903.466  -5291996.906  -3389244.776
10 0 59655  80862.000000  0    2847296.165  -5724065.028  -2576031.881
10 0 59655  80982.000000  0    2805359.136  -6056093.971  -1717587.853
10 0 59655  81102.000000  0    2709590.078  -6281235.477   -828959.860
10 0 59655  81222.000000  0    2563538.550  -6394567.705     74245.076
10 0 59655  81342.000000  0    2371711.332  -6393206.864    976140.574
10 0 59655  81462.000000  0    2139458.589  -6276379.998   1860847.989
10 0 59655  81582.000000  0    1872842.053  -6045454.482   2712786.468
10 0 59655  81702.000000  0    1578489.222  -5703922.870   3516955.377
10 0 59655  81822.000000  0    1263437.713  -5257345.682   4259204.110
10 0 59655  81942.000000  0     934973.780  -4713254.001   4926483.944
10 0 59655  82062.000000  0     600468.942  -4081014.914   5507079.060
10 0 59655  82182.000000  0     267217.827  -3371659.961   5990811.061
10 0 59655  82302.000000  0     -57717.329  -2597682.781   6369211.864
10 0 59655  82422.000000  0    -367653.371  -1772813.135   6635664.663
10 0 59655  82542.000000  0    -656420.873   -911770.691   6785513.685
10 0 59655  82662.000000  0    -918485.121    -30000.787   6816141.758
10 0 59655  82782.000000  0   -1149051.261    856603.380   6727013.413
10 0 59655  82902.000000  0   -1344151.572   1731986.807   6519683.296
10 0 59655  83022.000000  0   -1500713.647   2580222.610   6197770.813
10 0 59655  83142.000000  0   -1616609.095   3385802.025   5766900.913
10 0 59655  83262.000000  0   -1690681.428   4133919.665   5234611.017
10 0 59655  83382.000000  0   -1722752.677   4810749.961   4610226.227
10 0 59655  83502.000000  0   -1713609.270   5403710.028   3904701.194
10 0 59655  83622.000000  0   -1664966.075   5901702.143   3130431.315
10 0 59655  83742.000000  0   -1579411.292   6295330.564   2301035.946
10 0 59655  83862.000000  0   -1460331.495   6577088.474   1431116.669
10 0 59655  83982.000000  0   -1311817.624   6741508.978    535994.926
10 0 59655  84102.000000  0   -1138555.777   6785276.012   -368564.427
10 0 59655  84222.000000  0    -945705.407   6707294.361  -1266639.674
10 0 59655  84342.000000  0    -738766.793   6508712.212  -2142444.047
10 0 59655  84462.000000  0    -523443.297   6192895.815  -2980610.819
10 0 59655  84582.000000  0    -305501.845   5765361.758  -3766466.016
10 0 59655  84702.000000  0     -90634.134   5233669.426  -4486285.888
10 0 59655  84822.000000  0     115677.783   4607275.058  -5127534.163
10 0 59655  84942.000000  0     308288.676   3897352.205  -5679074.414
10 0 59655  85062.000000  0     482507.068   3116582.376  -6131355.063
10 0 59655  85182.000000  0     634198.933   2278921.008  -6476563.757
10 0 59655  85302.000000  0     759876.967   1399345.300  -6708750.470
10 0 59655  85422.000000  0     856774.051    493587.724  -6823920.069
10 0 59655  85542.000000  0     922899.479   -422141.382  -6820093.797
10 0 59655  85662.000000  0     957077.397  -1331438.431  -6697338.818
10 0 59655  85782.000000  0     958966.911  -2217992.378  -6457765.448
10 0 59655  85902.000000  0     929064.422  -3065868.929  -6105495.921
10 0 59655  86022.000000  0     868687.304  -3859793.572  -5646603.198
10 0 59655  86142.000000  0     779938.639  -4585426.302  -5089015.296
10 0 59655  86262.000000  0     665655.130  -5229622.287  -4442389.517
10 0 59655  86382.000000  0     529337.345  -5780676.647  -3717956.669
10 0 59656    102.000000  0     375063.835  -6228546.898  -2928334.651
10 0 59656    222.000000  0     207390.964  -6565047.515  -2087315.163
10 0 59656    342.000000  0      31240.517  -6784013.148  -1209625.403
10 0 59656    462.000000  0    -148222.830  -6881423.711   -310667.953
10 0 59656    582.000000  0    -325720.981  -6855487.473    593754.482
10 0 59656    702.000000  0    -495995.636  -6706680.777   1487723.594
10 0 59656    822.000000  0    -653941.939  -6437742.892   2355494.662
10 0 59656    942.000000  0    -794738.938  -6053624.338   3181783.649
10 0 59656   1062.000000  0    -913972.261  -5561389.006   3952044.855
10 0 59656   1182.000000  0   -1007747.783  -4970075.164   4652730.696
10 0 59656   1302.000000  0   -1072793.002  -4290520.181   5271531.373
10 0 59656   1422.000000  0   -1106542.916  -3535152.826   5797590.881
10 0 59656   1542.000000  0   -1107209.690  -2717755.515   6221694.889
10 0 59656   1662.000000  0   -1073833.217  -1853204.669   6536424.804
10 0 59656   1782.000000  0   -1006312.850   -957196.932   6736280.774
10 0 59656   1902.000000  0    -905420.759    -45962.122   6817773.145
10 0 59656   2022.000000  0    -772795.840    864031.194   6779479.444
10 0 59656   2142.000000  0    -610916.878   1756372.864   6622068.046
10 0 59656   2262.000000  0    -423056.157   2615006.658   6348287.128
10 0 59656   2382.000000  0    -213214.567   3424519.060   5962919.639
10 0 59656   2502.000000  0      13960.296   4170417.883   5472704.792
10 0 59656   2622.000000  0     253272.335   4839395.445   4886225.925
10 0 59656   2742.000000  0     499090.308   5419573.301   4213766.760
10 0 59656   2862.000000  0     745472.812   5900720.596   3467133.417
10 0 59656   2982.000000  0     986302.878   6274443.470   2659453.956
10 0 59656   3102.000000  0    1215432.081   6534346.840   1804944.696
10 0 59656   3222.000000  0    1426825.756   6676149.386    918654.042
10 0 59656   3342.000000  0    1614708.531   6697759.329     16190.528
10 0 59656   3462.000000  0    1773705.896   6599305.135   -886560.155
10 0 59656   3582.000000  0    1898977.563   6383122.093  -1773722.781
10 0 59656   3702.000000  0    1986340.089   6053695.616  -2629719.015
10 0 59656   3822.000000  0    2032375.542   5617562.216  -3439547.086
10 0 59656   3942.000000  0    2034523.502   5083170.346  -4189048.557
10 0 59656   4062.000000  0    1991154.051   4460704.733  -4865155.425
10 0 59656   4182.000000  0    1901620.154   3761880.962  -5456112.786
10 0 59656   4302.000000  0    1766289.573   2999716.264  -5951675.008
10 0 59656   4422.000000  0    1586554.897   2188280.316  -6343273.476
10 0 59656   4542.000000  0    1364822.422   1342432.576  -6624152.564
10 0 59656   4662.000000  0    1104481.287    477551.694  -6789475.705
10 0 59656   4782.000000  0     809851.645   -390740.582  -6836400.370
10 0 59656   4902.000000  0     486113.314  -1246856.284  -6764120.679
10 0 59656   5022.000000  0     139216.676  -2075513.488  -6573878.166
10 0 59656   5142.000000  0    -224223.015  -2862001.163  -6268943.879
10 0 59656   5262.000000  0    -597048.300  -3592436.960  -5854569.528
10 0 59656   5382.000000  0    -971695.658  -4254010.387  -5337905.413
10 0 59656   5502.000000  0   -1340343.753  -4835209.299  -4727888.919
10 0 59656   5622.000000  0   -1695072.262  -5326026.429  -4035101.415
99
